{"type": "FeatureCollection", "features": [{"type": "Feature", "properties": {"norad_id": 22490, "name": "SCD 1", "group": "resource", "lat": -21.809955230619753, "lon": 167.4458858828037, "alt_km": 727.4274810039005, "timestamp": "2025-12-11T05:00:25.967372+00:00", "meta": {"OBJECT_NAME": "SCD 1", "OBJECT_ID": "1993-009B", "EPOCH": "2025-12-10T13:43:36.179328", "MEAN_MOTION": 14.45996759, "ECCENTRICITY": 0.0041747, "INCLINATION": 24.9703, "RA_OF_ASC_NODE": 292.0692, "ARG_OF_PERICENTER": 301.9893, "MEAN_ANOMALY": 219.0671, "EPHEMERIS_TYPE": 0, "CLASSIFICATION_TYPE": "U", "NORAD_CAT_ID": 22490, "ELEMENT_SET_NO": 999, "REV_AT_EPOCH": 73378, "BSTAR": 0.00015981, "MEAN_MOTION_DOT": 7.7e-06, "MEAN_MOTION_DDOT": 0}, "tle": {"line1": "1 22490U 93009B   25344.57194652  .00000770  00000+0  15981-3 0  9995", "line2": "2 22490  24.9703 292.0692 0041747 301.9893 219.0671 14.45996759733783"}}, "geometry": {"type": "Point", "coordinates": [167.4458858828037, -21.809955230619753]}}, {"type": "Feature", "properties": {"norad_id": 25397, "name": "TECHSAT 1B (GO-32)", "group": "resource", "lat": -61.098345496965536, "lon": 131.71816953876706, "alt_km": 819.2384084542036, "timestamp": "2025-12-11T05:00:25.967400+00:00", "meta": {"OBJECT_NAME": "TECHSAT 1B (GO-32)", "OBJECT_ID": "1998-043D", "EPOCH": "2025-12-10T09:19:40.960992", "MEAN_MOTION": 14.24375977, "ECCENTRICITY": 0.00021301, "INCLINATION": 98.9918, "RA_OF_ASC_NODE": 327.5465, "ARG_OF_PERICENTER": 61.168, "MEAN_ANOMALY": 298.9711, "EPHEMERIS_TYPE": 0, "CLASSIFICATION_TYPE": "U", "NORAD_CAT_ID": 25397, "ELEMENT_SET_NO": 999, "REV_AT_EPOCH": 42445, "BSTAR": 9.4254531e-05, "MEAN_MOTION_DOT": 1.71e-06, "MEAN_MOTION_DDOT": 0}, "tle": {"line1": "1 25397U 98043D   25344.38866853  .00000171  00000+0  94255-4 0  9992", "line2": "2 25397  98.9918 327.5465 0002130  61.1680 298.9711 14.24375977424457"}}, "geometry": {"type": "Point", "coordinates": [131.71816953876706, -61.098345496965536]}}, {"type": "Feature", "properties": {"norad_id": 25504, "name": "SCD 2", "group": "resource", "lat": -24.761543932771538, "lon": 69.40339337650792, "alt_km": 730.136012606582, "timestamp": "2025-12-11T05:00:25.967415+00:00", "meta": {"OBJECT_NAME": "SCD 2", "OBJECT_ID": "1998-060A", "EPOCH": "2025-12-10T19:33:00.489600", "MEAN_MOTION": 14.45421747, "ECCENTRICITY": 0.00166027, "INCLINATION": 24.9931, "RA_OF_ASC_NODE": 153.7673, "ARG_OF_PERICENTER": 293.0623, "MEAN_ANOMALY": 89.7453, "EPHEMERIS_TYPE": 0, "CLASSIFICATION_TYPE": "U", "NORAD_CAT_ID": 25504, "ELEMENT_SET_NO": 999, "REV_AT_EPOCH": 43304, "BSTAR": 0.00011799575, "MEAN_MOTION_DOT": 6.05e-06, "MEAN_MOTION_DDOT": 0}, "tle": {"line1": "1 25504U 98060A   25344.81458900  .00000605  00000+0  11800-3 0  9995", "line2": "2 25504  24.9931 153.7673 0016602 293.0623  89.7453 14.45421747433047"}}, "geometry": {"type": "Point", "coordinates": [69.40339337650792, -24.761543932771538]}}, {"type": "Feature", "properties": {"norad_id": 25757, "name": "DLR-TUBSAT", "group": "resource", "lat": -52.36871614269683, "lon": -18.92856433624378, "alt_km": 728.1168783194616, "timestamp": "2025-12-11T05:00:25.967428+00:00", "meta": {"OBJECT_NAME": "DLR-TUBSAT", "OBJECT_ID": "1999-029B", "EPOCH": "2025-12-10T16:01:29.165088", "MEAN_MOTION": 14.52356404, "ECCENTRICITY": 0.0013766, "INCLINATION": 98.6562, "RA_OF_ASC_NODE": 329.1176, "ARG_OF_PERICENTER": 199.2259, "MEAN_ANOMALY": 160.8418, "EPHEMERIS_TYPE": 0, "CLASSIFICATION_TYPE": "U", "NORAD_CAT_ID": 25757, "ELEMENT_SET_NO": 999, "REV_AT_EPOCH": 40588, "BSTAR": 7.4223707e-05, "MEAN_MOTION_DOT": 2.54e-06, "MEAN_MOTION_DDOT": 0}, "tle": {"line1": "1 25757U 99029B   25344.66769867  .00000254  00000+0  74224-4 0  9991", "line2": "2 25757  98.6562 329.1176 0013766 199.2259 160.8418 14.52356404405880"}}, "geometry": {"type": "Point", "coordinates": [-18.92856433624378, -52.36871614269683]}}, {"type": "Feature", "properties": {"norad_id": 25994, "name": "TERRA", "group": "resource", "lat": -36.75912436615355, "lon": 42.96039108446033, "alt_km": 698.4095983277693, "timestamp": "2025-12-11T05:00:25.967440+00:00", "meta": {"OBJECT_NAME": "TERRA", "OBJECT_ID": "1999-068A", "EPOCH": "2025-12-10T22:50:12.297408", "MEAN_MOTION": 14.60898443, "ECCENTRICITY": 0.00036027, "INCLINATION": 97.9751, "RA_OF_ASC_NODE": 36.7017, "ARG_OF_PERICENTER": 98.0426, "MEAN_ANOMALY": 313.5542, "EPHEMERIS_TYPE": 0, "CLASSIFICATION_TYPE": "U", "NORAD_CAT_ID": 25994, "ELEMENT_SET_NO": 999, "REV_AT_EPOCH": 38212, "BSTAR": 0.00015110869, "MEAN_MOTION_DOT": 6.95e-06, "MEAN_MOTION_DDOT": 0}, "tle": {"line1": "1 25994U 99068A   25344.95153122  .00000695  00000+0  15111-3 0  9998", "line2": "2 25994  97.9751  36.7017 0003602  98.0426 313.5542 14.60898443382129"}}, "geometry": {"type": "Point", "coordinates": [42.96039108446033, -36.75912436615355]}}, {"type": "Feature", "properties": {"norad_id": 27004, "name": "MAROC-TUBSAT", "group": "resource", "lat": 80.19220822422365, "lon": 60.915973073563805, "alt_km": 1005.2125605393785, "timestamp": "2025-12-11T05:00:25.967452+00:00", "meta": {"OBJECT_NAME": "MAROC-TUBSAT", "OBJECT_ID": "2001-056D", "EPOCH": "2025-12-10T11:07:51.424032", "MEAN_MOTION": 13.70252712, "ECCENTRICITY": 0.00190921, "INCLINATION": 99.7912, "RA_OF_ASC_NODE": 152.8689, "ARG_OF_PERICENTER": 266.2021, "MEAN_ANOMALY": 111.9402, "EPHEMERIS_TYPE": 0, "CLASSIFICATION_TYPE": "U", "NORAD_CAT_ID": 27004, "ELEMENT_SET_NO": 999, "REV_AT_EPOCH": 20034, "BSTAR": 4.2568773e-05, "MEAN_MOTION_DOT": -9e-08, "MEAN_MOTION_DDOT": 0}, "tle": {"line1": "1 27004U 01056D   25344.46378963 -.00000009  00000+0  42569-4 0  9998", "line2": "2 27004  99.7912 152.8689 0019092 266.2021 111.9402 13.70252712200348"}}, "geometry": {"type": "Point", "coordinates": [60.915973073563805, 80.19220822422365]}}, {"type": "Feature", "properties": {"norad_id": 27424, "name": "AQUA", "group": "resource", "lat": -12.964210897716793, "lon": 124.11255220174422, "alt_km": 691.7244325938573, "timestamp": "2025-12-11T05:00:25.967462+00:00", "meta": {"OBJECT_NAME": "AQUA", "OBJECT_ID": "2002-022A", "EPOCH": "2025-12-10T21:36:43.522272", "MEAN_MOTION": 14.61802151, "ECCENTRICITY": 0.00010207, "INCLINATION": 98.4036, "RA_OF_ASC_NODE": 305.7497, "ARG_OF_PERICENTER": 114.8286, "MEAN_ANOMALY": 257.5742, "EPHEMERIS_TYPE": 0, "CLASSIFICATION_TYPE": "U", "NORAD_CAT_ID": 27424, "ELEMENT_SET_NO": 999, "REV_AT_EPOCH": 25576, "BSTAR": 0.0003622738, "MEAN_MOTION_DOT": 1.759e-05, "MEAN_MOTION_DDOT": 0}, "tle": {"line1": "1 27424U 02022A   25344.90050373  .00001759  00000+0  36227-3 0  9994", "line2": "2 27424  98.4036 305.7497 0001020 114.8286 257.5742 14.61802151255765"}}, "geometry": {"type": "Point", "coordinates": [124.11255220174422, -12.964210897716793]}}, {"type": "Feature", "properties": {"norad_id": 28051, "name": "IRS-P6 (RESOURCESAT-1)", "group": "resource", "lat": -19.17424302002879, "lon": -157.1944699028848, "alt_km": 732.144994886351, "timestamp": "2025-12-11T05:00:25.967473+00:00", "meta": {"OBJECT_NAME": "IRS-P6 (RESOURCESAT-1)", "OBJECT_ID": "2003-046A", "EPOCH": "2025-12-10T23:36:47.282112", "MEAN_MOTION": 14.36072578, "ECCENTRICITY": 0.00640169, "INCLINATION": 98.2177, "RA_OF_ASC_NODE": 25.4716, "ARG_OF_PERICENTER": 185.9458, "MEAN_ANOMALY": 291.8734, "EPHEMERIS_TYPE": 0, "CLASSIFICATION_TYPE": "U", "NORAD_CAT_ID": 28051, "ELEMENT_SET_NO": 999, "REV_AT_EPOCH": 15351, "BSTAR": 2.8394153e-05, "MEAN_MOTION_DOT": 4.4e-07, "MEAN_MOTION_DDOT": 0}, "tle": {"line1": "1 28051U 03046A   25344.98388058  .00000044  00000+0  28394-4 0  9993", "line2": "2 28051  98.2177  25.4716 0064016 185.9458 291.8734 14.36072578153516"}}, "geometry": {"type": "Point", "coordinates": [-157.1944699028848, -19.17424302002879]}}, {"type": "Feature", "properties": {"norad_id": 28220, "name": "SHIYAN-1 (SY-1)", "group": "resource", "lat": -72.20889413218562, "lon": 72.2731276868843, "alt_km": 486.1293681356665, "timestamp": "2025-12-11T05:00:25.967484+00:00", "meta": {"OBJECT_NAME": "SHIYAN-1 (SY-1)", "OBJECT_ID": "2004-012A", "EPOCH": "2025-12-10T04:11:03.635232", "MEAN_MOTION": 15.28033489, "ECCENTRICITY": 0.00057877, "INCLINATION": 97.8933, "RA_OF_ASC_NODE": 45.561, "ARG_OF_PERICENTER": 335.8258, "MEAN_ANOMALY": 24.2708, "EPHEMERIS_TYPE": 0, "CLASSIFICATION_TYPE": "U", "NORAD_CAT_ID": 28220, "ELEMENT_SET_NO": 999, "REV_AT_EPOCH": 18217, "BSTAR": 0.00067493114, "MEAN_MOTION_DOT": 0.00018409, "MEAN_MOTION_DDOT": 0}, "tle": {"line1": "1 28220U 04012A   25344.17434763  .00018409  00000+0  67493-3 0  9997", "line2": "2 28220  97.8933  45.5610 0005787 335.8258  24.2708 15.28033489182172"}}, "geometry": {"type": "Point", "coordinates": [72.2731276868843, -72.20889413218562]}}, {"type": "Feature", "properties": {"norad_id": 28376, "name": "AURA", "group": "resource", "lat": -30.731159647151266, "lon": -59.58214182068205, "alt_km": 696.6130194193538, "timestamp": "2025-12-11T05:00:25.967495+00:00", "meta": {"OBJECT_NAME": "AURA", "OBJECT_ID": "2004-026A", "EPOCH": "2025-12-10T22:34:27.306048", "MEAN_MOTION": 14.60939614, "ECCENTRICITY": 0.00012039, "INCLINATION": 98.3183, "RA_OF_ASC_NODE": 295.1588, "ARG_OF_PERICENTER": 94.1898, "MEAN_ANOMALY": 265.944, "EPHEMERIS_TYPE": 0, "CLASSIFICATION_TYPE": "U", "NORAD_CAT_ID": 28376, "ELEMENT_SET_NO": 999, "REV_AT_EPOCH": 13872, "BSTAR": 0.00035390354, "MEAN_MOTION_DOT": 1.686e-05, "MEAN_MOTION_DDOT": 0}, "tle": {"line1": "1 28376U 04026A   25344.94059382  .00001686  00000+0  35390-3 0  9999", "line2": "2 28376  98.3183 295.1588 0001203  94.1898 265.9440 14.60939614138727"}}, "geometry": {"type": "Point", "coordinates": [-59.58214182068205, -30.731159647151266]}}]}